{
"type": "FeatureCollection",
"name": "tree_age_context_arrondissement",
"crs": { "type": "name", "properties": { "name": "urn:ogc:def:crs:OGC:1.3:CRS84" } },
"features": [
{ "type": "Feature", "properties": { "insee_com": "75101", "nom_arrondissement": "Paris 1er Arrondissement", "avg_circumference_cm": 77.926079243051447, "tree_count": 1691, "pct_young_trees": 0.20934358367829686 }, "geometry": { "type": "Polygon", "coordinates": [ [ [ 2.344634297019093, 48.854088645680854 ], [ 2.342929504859985, 48.85483295469097 ], [ 2.342506315232651, 48.855104033532221 ], [ 2.341367616268792, 48.856128429750846 ], [ 2.34056747495699, 48.856675325998197 ], [ 2.337672258257701, 48.858310545963839 ], [ 2.336388411505671, 48.858625400938571 ], [ 2.332915970801085, 48.859335467833546 ], [ 2.331211887811374, 48.859679401249267 ], [ 2.327980452922263, 48.860820561087444 ], [ 2.325904334762589, 48.861468108134083 ], [ 2.320933472558735, 48.863019262906029 ], [ 2.321403511219162, 48.863664963339311 ], [ 2.321467800025973, 48.86375256463905 ], [ 2.323471663253651, 48.866371116066574 ], [ 2.324584010884946, 48.867949453984657 ], [ 2.325318661731757, 48.869012125426103 ], [ 2.325166186173741, 48.869416869770539 ], [ 2.325888016639641, 48.869576523696324 ], [ 2.327999372502886, 48.869921153097998 ], [ 2.330284399564853, 48.868317840678841 ], [ 2.333660618265889, 48.867506590169903 ], [ 2.335874392590844, 48.866979288015116 ], [ 2.338668944584592, 48.866336441979662 ], [ 2.341202420510689, 48.865744255894853 ], [ 2.343082571546486, 48.865285132413419 ], [ 2.344974968231859, 48.864825147064664 ], [ 2.346682599072114, 48.864421681423217 ], [ 2.349017869621773, 48.863858825489011 ], [ 2.350955108041352, 48.863401687502829 ], [ 2.350164450262719, 48.861985423076298 ], [ 2.348223210390838, 48.858516871060658 ], [ 2.347573942712776, 48.857358566921661 ], [ 2.347329473251235, 48.857180960971242 ], [ 2.347114738902888, 48.857240945446172 ], [ 2.346788831496143, 48.856710348238984 ], [ 2.346476434928995, 48.856189716516631 ], [ 2.345836666383353, 48.855257189622726 ], [ 2.344918495507247, 48.854356410642993 ], [ 2.344634297019093, 48.854088645680854 ] ] ] } },
{ "type": "Feature", "properties": { "insee_com": "75102", "nom_arrondissement": "Paris 2e Arrondissement", "avg_circumference_cm": 81.554257095158604, "tree_count": 599, "pct_young_trees": 0.21535893155258765 }, "geometry": { "type": "Polygon", "coordinates": [ [ [ 2.335874392590844, 48.866979288015116 ], [ 2.333660618265889, 48.867506590169903 ], [ 2.330284399564853, 48.868317840678841 ], [ 2.327999372502886, 48.869921153097998 ], [ 2.329973073724776, 48.870264974507457 ], [ 2.332522410349862, 48.87069201592216 ], [ 2.334154842936358, 48.870968212357781 ], [ 2.336996437232553, 48.871467831132101 ], [ 2.337122942617793, 48.871490115950131 ], [ 2.340041163195276, 48.871972099419636 ], [ 2.343050733348993, 48.871485024595522 ], [ 2.346736617803734, 48.870875659602348 ], [ 2.347918228212595, 48.870687845172782 ], [ 2.352047532032926, 48.869821721680829 ], [ 2.352661345726701, 48.869684745831869 ], [ 2.35425267163513, 48.869323712694474 ], [ 2.351510758459, 48.864427255249943 ], [ 2.350955108041352, 48.863401687502829 ], [ 2.349017869621773, 48.863858825489011 ], [ 2.346682599072114, 48.864421681423217 ], [ 2.344974968231859, 48.864825147064664 ], [ 2.343082571546486, 48.865285132413419 ], [ 2.341202420510689, 48.865744255894853 ], [ 2.338668944584592, 48.866336441979662 ], [ 2.335874392590844, 48.866979288015116 ] ] ] } },
{ "type": "Feature", "properties": { "insee_com": "75103", "nom_arrondissement": "Paris 3e Arrondissement", "avg_circumference_cm": 86.043478260869563, "tree_count": 1288, "pct_young_trees": 0.1498447204968944 }, "geometry": { "type": "Polygon", "coordinates": [ [ [ 2.350164450262719, 48.861985423076298 ], [ 2.350955108041352, 48.863401687502829 ], [ 2.351510758459, 48.864427255249943 ], [ 2.35425267163513, 48.869323712694474 ], [ 2.355742901188442, 48.868978302413183 ], [ 2.359086831752373, 48.86843506628351 ], [ 2.363290446814834, 48.867816271837832 ], [ 2.363872116727157, 48.867516286784095 ], [ 2.364306784904801, 48.867309049686241 ], [ 2.364858189028701, 48.866248055796426 ], [ 2.365426063659955, 48.865287872207347 ], [ 2.366686433327767, 48.86320267494105 ], [ 2.366888855469114, 48.862473478012838 ], [ 2.367251725976692, 48.860990577510307 ], [ 2.367327839507425, 48.86067171197265 ], [ 2.367612199287384, 48.859478882248588 ], [ 2.36783451579174, 48.858568118240612 ], [ 2.368229037863571, 48.856943279848721 ], [ 2.368490886682737, 48.85580518576208 ], [ 2.36827851557945, 48.855785178422295 ], [ 2.36494121805568, 48.856306224187001 ], [ 2.364313790337467, 48.856457580934034 ], [ 2.36176775751168, 48.857243550607983 ], [ 2.35934459162322, 48.858339499956038 ], [ 2.356864255095606, 48.860083522494975 ], [ 2.355146374700977, 48.860672344183726 ], [ 2.353499932088789, 48.861212962299895 ], [ 2.351651737500054, 48.861642744497885 ], [ 2.350164450262719, 48.861985423076298 ] ] ] } },
{ "type": "Feature", "properties": { "insee_com": "75104", "nom_arrondissement": "Paris 4e Arrondissement", "avg_circumference_cm": 89.095076400679119, "tree_count": 2945, "pct_young_trees": 0.22105263157894736 }, "geometry": { "type": "Polygon", "coordinates": [ [ [ 2.349933698541125, 48.852076019570276 ], [ 2.349023837979599, 48.852363363195501 ], [ 2.346673612596327, 48.853399201063937 ], [ 2.344634297019093, 48.854088645680854 ], [ 2.344918495507247, 48.854356410642993 ], [ 2.345836666383353, 48.855257189622726 ], [ 2.346476434928995, 48.856189716516631 ], [ 2.346788831496143, 48.856710348238984 ], [ 2.347114738902888, 48.857240945446172 ], [ 2.347329473251235, 48.857180960971242 ], [ 2.347573942712776, 48.857358566921661 ], [ 2.348223210390838, 48.858516871060658 ], [ 2.350164450262719, 48.861985423076298 ], [ 2.351651737500054, 48.861642744497885 ], [ 2.353499932088789, 48.861212962299895 ], [ 2.355146374700977, 48.860672344183726 ], [ 2.356864255095606, 48.860083522494975 ], [ 2.35934459162322, 48.858339499956038 ], [ 2.36176775751168, 48.857243550607983 ], [ 2.364313790337467, 48.856457580934034 ], [ 2.36494121805568, 48.856306224187001 ], [ 2.36827851557945, 48.855785178422295 ], [ 2.368490886682737, 48.85580518576208 ], [ 2.368965669064553, 48.853851601953252 ], [ 2.369123881441926, 48.853166230564838 ], [ 2.369041481590489, 48.852993120408804 ], [ 2.368972404780255, 48.85284526230501 ], [ 2.366443514943608, 48.847309858160784 ], [ 2.366041558191069, 48.847082889533745 ], [ 2.365379762440006, 48.846708845484798 ], [ 2.3644554356846, 48.846185908476926 ], [ 2.362491745042108, 48.847642313664693 ], [ 2.361057893168452, 48.848555606534589 ], [ 2.358614111953559, 48.849697304645474 ], [ 2.354597116127077, 48.850986064894464 ], [ 2.351597982626872, 48.851614687388398 ], [ 2.349933698541125, 48.852076019570276 ] ] ] } },
{ "type": "Feature", "properties": { "insee_com": "75105", "nom_arrondissement": "Paris 5e Arrondissement", "avg_circumference_cm": 93.950051317139923, "tree_count": 2923, "pct_young_trees": 0.24358535750940813 }, "geometry": { "type": "Polygon", "coordinates": [ [ [ 2.339694669367677, 48.838864094489885 ], [ 2.337552480490955, 48.839430543036421 ], [ 2.336656991547952, 48.839671107573722 ], [ 2.336771393206437, 48.840745584760427 ], [ 2.337256165772474, 48.840875082012545 ], [ 2.337755934595521, 48.841754730558073 ], [ 2.338983319797129, 48.84392448829842 ], [ 2.340634393877524, 48.846971642199556 ], [ 2.340849163503854, 48.847337066418532 ], [ 2.342631736794723, 48.850348032959289 ], [ 2.343821016117944, 48.852762137345373 ], [ 2.344281403902505, 48.853756649383996 ], [ 2.344634297019093, 48.854088645680854 ], [ 2.346673612596327, 48.853399201063937 ], [ 2.349023837979599, 48.852363363195501 ], [ 2.349933698541125, 48.852076019570276 ], [ 2.351597982626872, 48.851614687388398 ], [ 2.354597116127077, 48.850986064894464 ], [ 2.358614111953559, 48.849697304645474 ], [ 2.361057893168452, 48.848555606534589 ], [ 2.362491745042108, 48.847642313664693 ], [ 2.3644554356846, 48.846185908476926 ], [ 2.36608772597324, 48.844967843131407 ], [ 2.365127018289573, 48.844413239994502 ], [ 2.364901763858922, 48.844112557522166 ], [ 2.364158198814394, 48.843184964533684 ], [ 2.361966407324183, 48.840242273187656 ], [ 2.361745287380767, 48.83994070614375 ], [ 2.357052208076732, 48.838446910980025 ], [ 2.353043375796223, 48.837168881655707 ], [ 2.351870772035156, 48.836804585623312 ], [ 2.349069026043048, 48.83707267227053 ], [ 2.347007359776022, 48.83731595609234 ], [ 2.345521063609997, 48.837632504590125 ], [ 2.342085567254399, 48.838343044720887 ], [ 2.339694669367677, 48.838864094489885 ] ] ] } },
{ "type": "Feature", "properties": { "insee_com": "75106", "nom_arrondissement": "Paris 6e Arrondissement", "avg_circumference_cm": 90.932156646442365, "tree_count": 1813, "pct_young_trees": 0.29233314947600664 }, "geometry": { "type": "Polygon", "coordinates": [ [ [ 2.329574854219896, 48.841994259476934 ], [ 2.324641767064501, 48.843621342671561 ], [ 2.324298358087334, 48.843729125948421 ], [ 2.323192682554711, 48.84409071568286 ], [ 2.320120502008693, 48.845096771748331 ], [ 2.319142060375021, 48.84551930427191 ], [ 2.316982623504709, 48.846635695781558 ], [ 2.316712552321028, 48.846863491073179 ], [ 2.319420835184011, 48.847858333162542 ], [ 2.320555394566371, 48.848425083685918 ], [ 2.323287262396386, 48.849819285566745 ], [ 2.324162209437006, 48.850235238196596 ], [ 2.326867309541756, 48.851395370785916 ], [ 2.326814484762852, 48.851581240636413 ], [ 2.328657392915725, 48.851867697922117 ], [ 2.32865905955895, 48.852055672920045 ], [ 2.329335689720448, 48.852638653237989 ], [ 2.330463707347445, 48.854473360719666 ], [ 2.330732889977583, 48.855055849755345 ], [ 2.331347623117892, 48.855900182523882 ], [ 2.333270093392226, 48.858290596586663 ], [ 2.332451956624262, 48.858530659085027 ], [ 2.332915970801085, 48.859335467833546 ], [ 2.336388411505671, 48.858625400938571 ], [ 2.337672258257701, 48.858310545963839 ], [ 2.34056747495699, 48.856675325998197 ], [ 2.341367616268792, 48.856128429750846 ], [ 2.342506315232651, 48.855104033532221 ], [ 2.342929504859985, 48.85483295469097 ], [ 2.344634297019093, 48.854088645680854 ], [ 2.344281403902505, 48.853756649383996 ], [ 2.343821016117944, 48.852762137345373 ], [ 2.342631736794723, 48.850348032959289 ], [ 2.340849163503854, 48.847337066418532 ], [ 2.340634393877524, 48.846971642199556 ], [ 2.338983319797129, 48.84392448829842 ], [ 2.337755934595521, 48.841754730558073 ], [ 2.337256165772474, 48.840875082012545 ], [ 2.336771393206437, 48.840745584760427 ], [ 2.336656991547952, 48.839671107573722 ], [ 2.334862059021432, 48.840246627966621 ], [ 2.3298321288791, 48.841907563266858 ], [ 2.329574854219896, 48.841994259476934 ] ] ] } },
{ "type": "Feature", "properties": { "insee_com": "75107", "nom_arrondissement": "Paris 7e Arrondissement", "avg_circumference_cm": 97.443853294091014, "tree_count": 8834, "pct_young_trees": 0.18972153045053203 }, "geometry": { "type": "Polygon", "coordinates": [ [ [ 2.301227956943836, 48.851062211514311 ], [ 2.300911619863719, 48.851176381130784 ], [ 2.299300737605958, 48.852194027582499 ], [ 2.295381342134141, 48.854707203739281 ], [ 2.291053303527222, 48.857475043708867 ], [ 2.289695682973307, 48.858182880385861 ], [ 2.291838557830339, 48.859968209629415 ], [ 2.293689941916093, 48.861246340410425 ], [ 2.294864562062728, 48.861875619377464 ], [ 2.296870514172012, 48.86261949441181 ], [ 2.299222465550164, 48.863283520573155 ], [ 2.301737287583633, 48.863496076942155 ], [ 2.310390240755495, 48.863608304977085 ], [ 2.318677870940691, 48.863723224069915 ], [ 2.320933472558735, 48.863019262906029 ], [ 2.325904334762589, 48.861468108134083 ], [ 2.327980452922263, 48.860820561087444 ], [ 2.331211887811374, 48.859679401249267 ], [ 2.332915970801085, 48.859335467833546 ], [ 2.332451956624262, 48.858530659085027 ], [ 2.333270093392226, 48.858290596586663 ], [ 2.331347623117892, 48.855900182523882 ], [ 2.330732889977583, 48.855055849755345 ], [ 2.330463707347445, 48.854473360719666 ], [ 2.329335689720448, 48.852638653237989 ], [ 2.32865905955895, 48.852055672920045 ], [ 2.328657392915725, 48.851867697922117 ], [ 2.326814484762852, 48.851581240636413 ], [ 2.326867309541756, 48.851395370785916 ], [ 2.324162209437006, 48.850235238196596 ], [ 2.323287262396386, 48.849819285566745 ], [ 2.320555394566371, 48.848425083685918 ], [ 2.319420835184011, 48.847858333162542 ], [ 2.316712552321028, 48.846863491073179 ], [ 2.313715867497841, 48.84594337804154 ], [ 2.311972122446195, 48.847044076016104 ], [ 2.311235573297421, 48.847509305242461 ], [ 2.310494899377192, 48.847976304768672 ], [ 2.31032513277025, 48.847933056237842 ], [ 2.308218200598362, 48.847433437612359 ], [ 2.307354149221545, 48.847133447277052 ], [ 2.306041515788186, 48.847979336049193 ], [ 2.303659545504421, 48.849505204207276 ], [ 2.301227956943836, 48.851062211514311 ] ] ] } },
{ "type": "Feature", "properties": { "insee_com": "75108", "nom_arrondissement": "Paris 8e Arrondissement", "avg_circumference_cm": 102.12532366649404, "tree_count": 7724, "pct_young_trees": 0.15885551527705852 }, "geometry": { "type": "Polygon", "coordinates": [ [ [ 2.300991315923401, 48.864740919449012 ], [ 2.300297979606477, 48.865007572139895 ], [ 2.299841599006072, 48.86498691611407 ], [ 2.29983829121079, 48.865537298492541 ], [ 2.298906435388405, 48.868534765967759 ], [ 2.297501223263732, 48.870938572106695 ], [ 2.29620959727898, 48.872494045026592 ], [ 2.295542880656993, 48.873303129599883 ], [ 2.295032069299386, 48.873773176737288 ], [ 2.29790844777493, 48.877745383278764 ], [ 2.298154863077949, 48.878076885658906 ], [ 2.300837245802401, 48.878658265575801 ], [ 2.303141823521401, 48.87915015041041 ], [ 2.308778523051354, 48.88039243620689 ], [ 2.312550891398833, 48.880851234363746 ], [ 2.316479725210513, 48.881341383863152 ], [ 2.32044880312552, 48.882096935633143 ], [ 2.320493681357567, 48.882106183689643 ], [ 2.324273217775089, 48.882870424239783 ], [ 2.326846459419326, 48.883391243869397 ], [ 2.327164725373034, 48.883455086768883 ], [ 2.327009342363597, 48.879650933058151 ], [ 2.326964471590538, 48.877847513006131 ], [ 2.326852281656523, 48.875872837245218 ], [ 2.326665657478284, 48.875543529269059 ], [ 2.326936889585467, 48.874178959061119 ], [ 2.327025197965383, 48.873781048188626 ], [ 2.326713242090503, 48.873128171862248 ], [ 2.32646984849174, 48.872761670414178 ], [ 2.326608386325244, 48.872696798001236 ], [ 2.326613754960452, 48.872597900740296 ], [ 2.325888016639641, 48.869576523696324 ], [ 2.325166186173741, 48.869416869770539 ], [ 2.325318661731757, 48.869012125426103 ], [ 2.324584010884946, 48.867949453984657 ], [ 2.323471663253651, 48.866371116066574 ], [ 2.321467800025973, 48.86375256463905 ], [ 2.321403511219162, 48.863664963339311 ], [ 2.320933472558735, 48.863019262906029 ], [ 2.318677870940691, 48.863723224069915 ], [ 2.310390240755495, 48.863608304977085 ], [ 2.301737287583633, 48.863496076942155 ], [ 2.301662484441652, 48.864195334932994 ], [ 2.301635346720621, 48.8644910626629 ], [ 2.301395548741394, 48.864584094856504 ], [ 2.300991315923401, 48.864740919449012 ] ] ] } },
{ "type": "Feature", "properties": { "insee_com": "75109", "nom_arrondissement": "Paris 9e Arrondissement", "avg_circumference_cm": 76.955647955647962, "tree_count": 1443, "pct_young_trees": 0.2480942480942481 }, "geometry": { "type": "Polygon", "coordinates": [ [ [ 2.32646984849174, 48.872761670414178 ], [ 2.326713242090503, 48.873128171862248 ], [ 2.327025197965383, 48.873781048188626 ], [ 2.326936889585467, 48.874178959061119 ], [ 2.326665657478284, 48.875543529269059 ], [ 2.326852281656523, 48.875872837245218 ], [ 2.326964471590538, 48.877847513006131 ], [ 2.327009342363597, 48.879650933058151 ], [ 2.327164725373034, 48.883455086768883 ], [ 2.327423135703934, 48.883507800603795 ], [ 2.328121477639861, 48.883706876515788 ], [ 2.329540571639998, 48.8845898806861 ], [ 2.329637790197905, 48.884558948482976 ], [ 2.332303072703811, 48.883867867230059 ], [ 2.33274232791497, 48.883748906402325 ], [ 2.336109461079046, 48.882763071905075 ], [ 2.337773141701888, 48.882328915307575 ], [ 2.337800457656781, 48.882325469070736 ], [ 2.339550582183016, 48.882061739551503 ], [ 2.33980196854301, 48.882023555463356 ], [ 2.34195931462228, 48.882444628188217 ], [ 2.346909326916857, 48.883414230766142 ], [ 2.349464985893749, 48.883724922984428 ], [ 2.349600316361947, 48.883480141287656 ], [ 2.349835975240238, 48.881097296120572 ], [ 2.349852552535392, 48.880643223664059 ], [ 2.349530386371681, 48.879689980158339 ], [ 2.349252958934487, 48.878867381437395 ], [ 2.34909503783491, 48.877429387272379 ], [ 2.348995549228066, 48.877207609967428 ], [ 2.348666116138794, 48.876620350941486 ], [ 2.348226627388438, 48.875785174131558 ], [ 2.347901065991873, 48.874018902500438 ], [ 2.347883600185226, 48.872473744581946 ], [ 2.347918228212595, 48.870687845172782 ], [ 2.346736617803734, 48.870875659602348 ], [ 2.343050733348993, 48.871485024595522 ], [ 2.340041163195276, 48.871972099419636 ], [ 2.337122942617793, 48.871490115950131 ], [ 2.336996437232553, 48.871467831132101 ], [ 2.334154842936358, 48.870968212357781 ], [ 2.332522410349862, 48.87069201592216 ], [ 2.329973073724776, 48.870264974507457 ], [ 2.327999372502886, 48.869921153097998 ], [ 2.325888016639641, 48.869576523696324 ], [ 2.326613754960452, 48.872597900740296 ], [ 2.326608386325244, 48.872696798001236 ], [ 2.32646984849174, 48.872761670414178 ] ] ] } },
{ "type": "Feature", "properties": { "insee_com": "75110", "nom_arrondissement": "Paris 10e Arrondissement", "avg_circumference_cm": 89.562483487450464, "tree_count": 3785, "pct_young_trees": 0.20792602377807134 }, "geometry": { "type": "Polygon", "coordinates": [ [ [ 2.35425267163513, 48.869323712694474 ], [ 2.352661345726701, 48.869684745831869 ], [ 2.352047532032926, 48.869821721680829 ], [ 2.347918228212595, 48.870687845172782 ], [ 2.347883600185226, 48.872473744581946 ], [ 2.347901065991873, 48.874018902500438 ], [ 2.348226627388438, 48.875785174131558 ], [ 2.348666116138794, 48.876620350941486 ], [ 2.348995549228066, 48.877207609967428 ], [ 2.34909503783491, 48.877429387272379 ], [ 2.349252958934487, 48.878867381437395 ], [ 2.349530386371681, 48.879689980158339 ], [ 2.349852552535392, 48.880643223664059 ], [ 2.349835975240238, 48.881097296120572 ], [ 2.349600316361947, 48.883480141287656 ], [ 2.349464985893749, 48.883724922984428 ], [ 2.351242871583771, 48.883858677314016 ], [ 2.355830240363881, 48.884183822342983 ], [ 2.359340232450158, 48.884409501009962 ], [ 2.361500301513613, 48.884406650646788 ], [ 2.364713572113417, 48.884366186566311 ], [ 2.367546742687418, 48.884183333992574 ], [ 2.36827567111368, 48.884122430704736 ], [ 2.368718249261116, 48.883947597590129 ], [ 2.369301392563939, 48.883313047613335 ], [ 2.370083654434945, 48.882787461698427 ], [ 2.370168080363927, 48.882684483115689 ], [ 2.370220435118679, 48.881963497005643 ], [ 2.370287299693743, 48.878463655203717 ], [ 2.370290292159463, 48.877990622355782 ], [ 2.370575635491561, 48.877734014624131 ], [ 2.372341359986538, 48.876148768389179 ], [ 2.373300707155033, 48.875285038251583 ], [ 2.374534258323927, 48.874178113915761 ], [ 2.37509243793508, 48.87367740156003 ], [ 2.376904765014236, 48.872048259429583 ], [ 2.375886726070378, 48.87167602635467 ], [ 2.374663502121221, 48.871248752414104 ], [ 2.372896637378593, 48.870570401497083 ], [ 2.371543710704607, 48.870163100157441 ], [ 2.371045328493689, 48.870002198791084 ], [ 2.369358394801617, 48.869485196117736 ], [ 2.367835860204891, 48.868904285195917 ], [ 2.367610590375759, 48.868819456595659 ], [ 2.367064435257618, 48.868665480627904 ], [ 2.365419787037786, 48.868153141689717 ], [ 2.364355998683669, 48.867744592192423 ], [ 2.363872116727157, 48.867516286784095 ], [ 2.363290446814834, 48.867816271837832 ], [ 2.359086831752373, 48.86843506628351 ], [ 2.355742901188442, 48.868978302413183 ], [ 2.35425267163513, 48.869323712694474 ] ] ] } },
{ "type": "Feature", "properties": { "insee_com": "75111", "nom_arrondissement": "Paris 11e Arrondissement", "avg_circumference_cm": 81.813192027839293, "tree_count": 6322, "pct_young_trees": 0.22745966466308129 }, "geometry": { "type": "Polygon", "coordinates": [ [ [ 2.368229037863571, 48.856943279848721 ], [ 2.36783451579174, 48.858568118240612 ], [ 2.367612199287384, 48.859478882248588 ], [ 2.367327839507425, 48.86067171197265 ], [ 2.367251725976692, 48.860990577510307 ], [ 2.366888855469114, 48.862473478012838 ], [ 2.366686433327767, 48.86320267494105 ], [ 2.365426063659955, 48.865287872207347 ], [ 2.364858189028701, 48.866248055796426 ], [ 2.364306784904801, 48.867309049686241 ], [ 2.363872116727157, 48.867516286784095 ], [ 2.364355998683669, 48.867744592192423 ], [ 2.365419787037786, 48.868153141689717 ], [ 2.367064435257618, 48.868665480627904 ], [ 2.367610590375759, 48.868819456595659 ], [ 2.367835860204891, 48.868904285195917 ], [ 2.369358394801617, 48.869485196117736 ], [ 2.371045328493689, 48.870002198791084 ], [ 2.371543710704607, 48.870163100157441 ], [ 2.372896637378593, 48.870570401497083 ], [ 2.374663502121221, 48.871248752414104 ], [ 2.375886726070378, 48.87167602635467 ], [ 2.376904765014236, 48.872048259429583 ], [ 2.378290113390531, 48.870774807326946 ], [ 2.379195650384537, 48.870062735353955 ], [ 2.380575885891117, 48.868980787676229 ], [ 2.382366809467288, 48.867633839513957 ], [ 2.383069142721887, 48.867034904168769 ], [ 2.383583978668193, 48.866266822289155 ], [ 2.383913130241849, 48.865983426113921 ], [ 2.387201100440798, 48.863086439453454 ], [ 2.387377786989925, 48.862898482045523 ], [ 2.388879258024644, 48.859816912023255 ], [ 2.389546437996217, 48.858480292155605 ], [ 2.389819086218175, 48.858359371607058 ], [ 2.392167384833463, 48.857667134350933 ], [ 2.394345091773725, 48.856519817242365 ], [ 2.396012785487526, 48.854331138900839 ], [ 2.397079060811191, 48.852991089505693 ], [ 2.398394619444394, 48.851301535985101 ], [ 2.398755968948561, 48.850338348008691 ], [ 2.399247185197987, 48.84886587718335 ], [ 2.39912112864224, 48.848098095621303 ], [ 2.397515647030773, 48.848234817588903 ], [ 2.395957776088524, 48.848378053898536 ], [ 2.391973134719696, 48.848968531515062 ], [ 2.389496724149868, 48.849346240378125 ], [ 2.384707528580461, 48.850084359004363 ], [ 2.38445763880411, 48.850127141983393 ], [ 2.381426253806176, 48.850408294786703 ], [ 2.380114712394509, 48.850455468168427 ], [ 2.37938717089219, 48.850555122273263 ], [ 2.378555472483217, 48.850703695464198 ], [ 2.377805079911062, 48.850890458558368 ], [ 2.373812582082283, 48.851874207919657 ], [ 2.371718734832672, 48.852487382469263 ], [ 2.370255132996807, 48.853271118505219 ], [ 2.369123881441926, 48.853166230564838 ], [ 2.368965669064553, 48.853851601953252 ], [ 2.368490886682737, 48.85580518576208 ], [ 2.368229037863571, 48.856943279848721 ] ] ] } },
{ "type": "Feature", "properties": { "insee_com": "75112", "nom_arrondissement": "Paris 12e Arrondissement", "avg_circumference_cm": 84.653737553871309, "tree_count": 13458, "pct_young_trees": 0.15440630108485659 }, "geometry": { "type": "Polygon", "coordinates": [ [ [ 2.373550475260092, 48.839328589197073 ], [ 2.372451617071186, 48.840179022947581 ], [ 2.36608772597324, 48.844967843131407 ], [ 2.3644554356846, 48.846185908476926 ], [ 2.365379762440006, 48.846708845484798 ], [ 2.366041558191069, 48.847082889533745 ], [ 2.366443514943608, 48.847309858160784 ], [ 2.368972404780255, 48.85284526230501 ], [ 2.369041481590489, 48.852993120408804 ], [ 2.369123881441926, 48.853166230564838 ], [ 2.370255132996807, 48.853271118505219 ], [ 2.371718734832672, 48.852487382469263 ], [ 2.373812582082283, 48.851874207919657 ], [ 2.377805079911062, 48.850890458558368 ], [ 2.378555472483217, 48.850703695464198 ], [ 2.37938717089219, 48.850555122273263 ], [ 2.380114712394509, 48.850455468168427 ], [ 2.381426253806176, 48.850408294786703 ], [ 2.38445763880411, 48.850127141983393 ], [ 2.384707528580461, 48.850084359004363 ], [ 2.389496724149868, 48.849346240378125 ], [ 2.391973134719696, 48.848968531515062 ], [ 2.395957776088524, 48.848378053898536 ], [ 2.397515647030773, 48.848234817588903 ], [ 2.39912112864224, 48.848098095621303 ], [ 2.403457625643953, 48.847707892342555 ], [ 2.406296268896808, 48.847454904426925 ], [ 2.411068913600706, 48.847046803365934 ], [ 2.415971110769568, 48.846622956268604 ], [ 2.415663673457238, 48.844996321949338 ], [ 2.415299092607447, 48.843849661228454 ], [ 2.414849601173434, 48.842378814335589 ], [ 2.414046530133938, 48.839759549813245 ], [ 2.412852033331908, 48.836216506749153 ], [ 2.412245612562639, 48.834538914664805 ], [ 2.411471874927621, 48.833928938764416 ], [ 2.413505425613419, 48.833723080147081 ], [ 2.415470466512807, 48.833793856331447 ], [ 2.417337888379132, 48.834188794954976 ], [ 2.419796237439636, 48.834983191073405 ], [ 2.422138636243513, 48.835797660946675 ], [ 2.421475736306939, 48.837095832373379 ], [ 2.421062063196677, 48.838890752387442 ], [ 2.420772547136299, 48.839687082334379 ], [ 2.420393582068758, 48.840439808494459 ], [ 2.419538952900591, 48.841449240841087 ], [ 2.419356954364107, 48.842497907249466 ], [ 2.419848924917877, 48.843101963506847 ], [ 2.419859968239215, 48.843456363301478 ], [ 2.421847988927573, 48.844437291181855 ], [ 2.422435387811295, 48.844057902616576 ], [ 2.423491922523837, 48.842655507256126 ], [ 2.42394800402987, 48.842196334532368 ], [ 2.424347225006843, 48.841950033859007 ], [ 2.424919695918368, 48.84180799083186 ], [ 2.427575156761254, 48.841570705785799 ], [ 2.431532950269272, 48.84122803747784 ], [ 2.433544643445916, 48.841046017299234 ], [ 2.43366970903699, 48.841197701349422 ], [ 2.437184204443509, 48.840893217828601 ], [ 2.437958319623622, 48.844664254882197 ], [ 2.440519707011923, 48.84443973100867 ], [ 2.440615688866212, 48.844891655105378 ], [ 2.440801139730464, 48.844879031795777 ], [ 2.44086390998716, 48.845251657230129 ], [ 2.440681366302255, 48.845247206530573 ], [ 2.44075815339398, 48.845964349320248 ], [ 2.446646486889991, 48.845801966169354 ], [ 2.446497282929874, 48.844967576602379 ], [ 2.44785282741999, 48.844863220162665 ], [ 2.457843527623447, 48.843549991921073 ], [ 2.459873497765622, 48.843181446205428 ], [ 2.461793922353881, 48.842730532143577 ], [ 2.463741475493356, 48.84202339313839 ], [ 2.465258517101661, 48.841173999342757 ], [ 2.466164109594403, 48.840422586485239 ], [ 2.467319402317011, 48.839099389262024 ], [ 2.467913269660948, 48.838448200725288 ], [ 2.469472533957363, 48.837047633652084 ], [ 2.469803238423912, 48.836547258662662 ], [ 2.469834017515896, 48.835798230158602 ], [ 2.469496032469829, 48.834471077153125 ], [ 2.468618156780551, 48.833587606722695 ], [ 2.466938823254061, 48.832749125213198 ], [ 2.466273218864984, 48.832295577079314 ], [ 2.465627464284061, 48.831634361177308 ], [ 2.465272790705598, 48.83101761246408 ], [ 2.464702177139617, 48.829276591461515 ], [ 2.464646704073335, 48.827780700501833 ], [ 2.464661941154306, 48.827623379858743 ], [ 2.465094593138125, 48.827540775466929 ], [ 2.465232235297584, 48.827667302107429 ], [ 2.466178324692475, 48.827327971465536 ], [ 2.465730572119004, 48.826226047976633 ], [ 2.465712037823177, 48.826173801945991 ], [ 2.465319736172734, 48.824979488631143 ], [ 2.465189202930903, 48.824957320128789 ], [ 2.465299394785839, 48.824705090716229 ], [ 2.465044244672473, 48.824084285408368 ], [ 2.462867047647515, 48.820177558123099 ], [ 2.462696960503023, 48.819369158490005 ], [ 2.462529348017551, 48.819246090647823 ], [ 2.462696062752353, 48.819059770555434 ], [ 2.461205214252255, 48.818355149145169 ], [ 2.459115403967742, 48.817365397289031 ], [ 2.45941357657735, 48.816847807093723 ], [ 2.459119228635603, 48.81699667137066 ], [ 2.458717081488417, 48.817034423974484 ], [ 2.454202941109536, 48.817116431884031 ], [ 2.453283089776461, 48.817171588150423 ], [ 2.450806758669985, 48.817728644094899 ], [ 2.449670555127019, 48.817893401677154 ], [ 2.447786272701002, 48.817965657916417 ], [ 2.44418090156304, 48.817875204035808 ], [ 2.442325672531203, 48.817904339334753 ], [ 2.439853739221728, 48.818291207553543 ], [ 2.437328614686424, 48.818176822850575 ], [ 2.437442471570391, 48.819110909067035 ], [ 2.436924916588069, 48.819364794525875 ], [ 2.436027653556641, 48.819592604323098 ], [ 2.434901851098009, 48.819669132147347 ], [ 2.434144075250625, 48.819215861597101 ], [ 2.434287751289356, 48.820158185680555 ], [ 2.43248024229773, 48.82142583086496 ], [ 2.432890021773651, 48.821693089814808 ], [ 2.432634430984658, 48.8219005317194 ], [ 2.432194835497048, 48.821619639785595 ], [ 2.43037098941349, 48.822877281261967 ], [ 2.430628080921096, 48.823157310756812 ], [ 2.429226897097741, 48.8236219015022 ], [ 2.42698299602774, 48.824047365182864 ], [ 2.425131776070185, 48.824185977106509 ], [ 2.422878161027141, 48.824130153710485 ], [ 2.421718495045437, 48.824056199253725 ], [ 2.419962519541093, 48.824080072237699 ], [ 2.418914650479385, 48.82424136871397 ], [ 2.41787247039753, 48.82450251391699 ], [ 2.415976094429698, 48.824777468846776 ], [ 2.413110929286841, 48.824717573915301 ], [ 2.411931955241783, 48.824785530531969 ], [ 2.410907282795905, 48.824939676030404 ], [ 2.409955145964196, 48.825183208437146 ], [ 2.409175132460023, 48.825502231564357 ], [ 2.407706677790518, 48.826350269357583 ], [ 2.40514539528833, 48.828301780734961 ], [ 2.403814047852145, 48.829059614967122 ], [ 2.402237349716065, 48.829589567197672 ], [ 2.401508451268692, 48.829361979067485 ], [ 2.401026650227233, 48.829206674351227 ], [ 2.399336932813713, 48.828665773239649 ], [ 2.39570666297783, 48.827727429555608 ], [ 2.394339872457587, 48.827538842574192 ], [ 2.390951448461554, 48.826084438411065 ], [ 2.390072014511326, 48.825692326811193 ], [ 2.388512315585047, 48.826743822412411 ], [ 2.384304749063455, 48.830310724116679 ], [ 2.378358228919763, 48.835023230874732 ], [ 2.374862841776404, 48.838053861778739 ], [ 2.373550475260092, 48.839328589197073 ] ] ] } },
{ "type": "Feature", "properties": { "insee_com": "75113", "nom_arrondissement": "Paris 13e Arrondissement", "avg_circumference_cm": 74.881123058542414, "tree_count": 18414, "pct_young_trees": 0.27126099706744866 }, "geometry": { "type": "Polygon", "coordinates": [ [ [ 2.351253779116588, 48.817962037023527 ], [ 2.348600538375941, 48.816780212662721 ], [ 2.346919974440822, 48.816018260690555 ], [ 2.346371448422839, 48.815993678067848 ], [ 2.345190828033564, 48.816092446054775 ], [ 2.344355599882103, 48.816015918149219 ], [ 2.344448463099662, 48.815562238059101 ], [ 2.34434443743991, 48.815603938742605 ], [ 2.343902504744145, 48.815767001288293 ], [ 2.34412923088539, 48.817772072680455 ], [ 2.344586816272369, 48.819398866537306 ], [ 2.344591545649815, 48.819564378702395 ], [ 2.343809839510958, 48.820425296341483 ], [ 2.342505769343296, 48.821448823274039 ], [ 2.342046610267817, 48.822109140886461 ], [ 2.34173011598054, 48.82268839831459 ], [ 2.341488633272006, 48.823582850353148 ], [ 2.341542263379834, 48.824621028276304 ], [ 2.341785214650722, 48.826415723872294 ], [ 2.341795702304383, 48.826448159147766 ], [ 2.341592211729773, 48.826490209057582 ], [ 2.341600018072802, 48.828352859063841 ], [ 2.34128286098483, 48.830274873993091 ], [ 2.341249912243379, 48.831588676315441 ], [ 2.34115748484886, 48.831787827851677 ], [ 2.341072060968536, 48.831971728544545 ], [ 2.341263603808228, 48.833092501313367 ], [ 2.341671904722567, 48.83538904274122 ], [ 2.342085567254399, 48.838343044720887 ], [ 2.345521063609997, 48.837632504590125 ], [ 2.347007359776022, 48.83731595609234 ], [ 2.349069026043048, 48.83707267227053 ], [ 2.351870772035156, 48.836804585623312 ], [ 2.353043375796223, 48.837168881655707 ], [ 2.357052208076732, 48.838446910980025 ], [ 2.361745287380767, 48.83994070614375 ], [ 2.361966407324183, 48.840242273187656 ], [ 2.364158198814394, 48.843184964533684 ], [ 2.364901763858922, 48.844112557522166 ], [ 2.365127018289573, 48.844413239994502 ], [ 2.36608772597324, 48.844967843131407 ], [ 2.372451617071186, 48.840179022947581 ], [ 2.373550475260092, 48.839328589197073 ], [ 2.374862841776404, 48.838053861778739 ], [ 2.378358228919763, 48.835023230874732 ], [ 2.384304749063455, 48.830310724116679 ], [ 2.388512315585047, 48.826743822412411 ], [ 2.390072014511326, 48.825692326811193 ], [ 2.38944542518818, 48.825344669615745 ], [ 2.388799862307387, 48.82510573617926 ], [ 2.38694133817552, 48.824463063876095 ], [ 2.385225588159262, 48.823729359960943 ], [ 2.38330363397122, 48.82304493247868 ], [ 2.381524148119775, 48.82241067605338 ], [ 2.380767116748346, 48.821700747788867 ], [ 2.379083321889079, 48.82115778649213 ], [ 2.375760973479089, 48.820055838816664 ], [ 2.366927252430261, 48.817248298218779 ], [ 2.36420428117288, 48.816398323987137 ], [ 2.363328923996345, 48.816148134579045 ], [ 2.360678292349533, 48.816071933407947 ], [ 2.360525816939211, 48.81606752047994 ], [ 2.358423747028375, 48.816013988362876 ], [ 2.356232015039089, 48.815942848245641 ], [ 2.355852301315164, 48.815922815484456 ], [ 2.353377706979411, 48.817796363670411 ], [ 2.352391840207208, 48.818551005922679 ], [ 2.351253779116588, 48.817962037023527 ] ] ] } },
{ "type": "Feature", "properties": { "insee_com": "75114", "nom_arrondissement": "Paris 14e Arrondissement", "avg_circumference_cm": 96.099644415710358, "tree_count": 12374, "pct_young_trees": 0.41247777598189755 }, "geometry": { "type": "Polygon", "coordinates": [ [ [ 2.306959037060226, 48.823867988422421 ], [ 2.306863399755384, 48.823889918666666 ], [ 2.304066717016068, 48.824526626859949 ], [ 2.302099583430173, 48.824953161630852 ], [ 2.301315418488453, 48.825125760833103 ], [ 2.304587550274392, 48.827858263166299 ], [ 2.306931640548025, 48.829822621434054 ], [ 2.307135337599138, 48.83017815621568 ], [ 2.310667722025074, 48.833056782877222 ], [ 2.312769261334383, 48.834749805088038 ], [ 2.312900037568412, 48.834853984252263 ], [ 2.314830537930849, 48.836303153885005 ], [ 2.317385766077479, 48.838433081829365 ], [ 2.319877474643327, 48.840539205265671 ], [ 2.321394340274794, 48.839777062013354 ], [ 2.321832824389552, 48.840109616592152 ], [ 2.321471529354066, 48.840964664601124 ], [ 2.321548817535348, 48.841098209236208 ], [ 2.324244459914423, 48.843262051370068 ], [ 2.324641767064501, 48.843621342671561 ], [ 2.329574854219896, 48.841994259476934 ], [ 2.3298321288791, 48.841907563266858 ], [ 2.334862059021432, 48.840246627966621 ], [ 2.336656991547952, 48.839671107573722 ], [ 2.337552480490955, 48.839430543036421 ], [ 2.339694669367677, 48.838864094489885 ], [ 2.342085567254399, 48.838343044720887 ], [ 2.341671904722567, 48.83538904274122 ], [ 2.341263603808228, 48.833092501313367 ], [ 2.341072060968536, 48.831971728544545 ], [ 2.34115748484886, 48.831787827851677 ], [ 2.341249912243379, 48.831588676315441 ], [ 2.34128286098483, 48.830274873993091 ], [ 2.341600018072802, 48.828352859063841 ], [ 2.341592211729773, 48.826490209057582 ], [ 2.341795702304383, 48.826448159147766 ], [ 2.341785214650722, 48.826415723872294 ], [ 2.341542263379834, 48.824621028276304 ], [ 2.341488633272006, 48.823582850353148 ], [ 2.34173011598054, 48.82268839831459 ], [ 2.342046610267817, 48.822109140886461 ], [ 2.342505769343296, 48.821448823274039 ], [ 2.343809839510958, 48.820425296341483 ], [ 2.344591545649815, 48.819564378702395 ], [ 2.344586816272369, 48.819398866537306 ], [ 2.34412923088539, 48.817772072680455 ], [ 2.343902504744145, 48.815767001288293 ], [ 2.343013285918382, 48.816084997576468 ], [ 2.341683722695742, 48.816330411539418 ], [ 2.337275148209404, 48.816557884730955 ], [ 2.333711090278114, 48.816771017559716 ], [ 2.331898060637624, 48.817010929633305 ], [ 2.332461042459754, 48.818247130074461 ], [ 2.329296396286016, 48.818950726349179 ], [ 2.325503436242079, 48.819787402588354 ], [ 2.323964127671358, 48.820124072850206 ], [ 2.321039743668691, 48.820767650790003 ], [ 2.314615601049386, 48.822187102534109 ], [ 2.314145699672971, 48.822290535433098 ], [ 2.308348319891004, 48.82356304703147 ], [ 2.306959037060226, 48.823867988422421 ] ] ] } },
{ "type": "Feature", "properties": { "insee_com": "75115", "nom_arrondissement": "Paris 15e Arrondissement", "avg_circumference_cm": 70.454769466652067, "tree_count": 18262, "pct_young_trees": 0.099441463147519435 }, "geometry": { "type": "Polygon", "coordinates": [ [ [ 2.279051930653324, 48.832489952136996 ], [ 2.275304441773053, 48.829435496035586 ], [ 2.272852607332394, 48.827957320168785 ], [ 2.271099017149216, 48.827891782776483 ], [ 2.267826452957425, 48.827835816764463 ], [ 2.267625707632297, 48.82796859560446 ], [ 2.267338606820311, 48.831531984395028 ], [ 2.269930760703455, 48.833011125108719 ], [ 2.268101694609093, 48.834428158702593 ], [ 2.267788866344093, 48.834585433848602 ], [ 2.267475422198173, 48.834592508385349 ], [ 2.264992745234484, 48.834237312991249 ], [ 2.262791524526515, 48.833923373515397 ], [ 2.266032384682759, 48.836838399151155 ], [ 2.275463566410293, 48.84670443553734 ], [ 2.278021048066483, 48.84888826705852 ], [ 2.28007305872698, 48.850289250176992 ], [ 2.288074160462674, 48.85595722857159 ], [ 2.288513487011697, 48.857021083425956 ], [ 2.289695682973307, 48.858182880385861 ], [ 2.291053303527222, 48.857475043708867 ], [ 2.295381342134141, 48.854707203739281 ], [ 2.299300737605958, 48.852194027582499 ], [ 2.300911619863719, 48.851176381130784 ], [ 2.301227956943836, 48.851062211514311 ], [ 2.303659545504421, 48.849505204207276 ], [ 2.306041515788186, 48.847979336049193 ], [ 2.307354149221545, 48.847133447277052 ], [ 2.308218200598362, 48.847433437612359 ], [ 2.31032513277025, 48.847933056237842 ], [ 2.310494899377192, 48.847976304768672 ], [ 2.311235573297421, 48.847509305242461 ], [ 2.311972122446195, 48.847044076016104 ], [ 2.313715867497841, 48.84594337804154 ], [ 2.316712552321028, 48.846863491073179 ], [ 2.316982623504709, 48.846635695781558 ], [ 2.319142060375021, 48.84551930427191 ], [ 2.320120502008693, 48.845096771748331 ], [ 2.323192682554711, 48.84409071568286 ], [ 2.324298358087334, 48.843729125948421 ], [ 2.324641767064501, 48.843621342671561 ], [ 2.324244459914423, 48.843262051370068 ], [ 2.321548817535348, 48.841098209236208 ], [ 2.321471529354066, 48.840964664601124 ], [ 2.321832824389552, 48.840109616592152 ], [ 2.321394340274794, 48.839777062013354 ], [ 2.319877474643327, 48.840539205265671 ], [ 2.317385766077479, 48.838433081829365 ], [ 2.314830537930849, 48.836303153885005 ], [ 2.312900037568412, 48.834853984252263 ], [ 2.312769261334383, 48.834749805088038 ], [ 2.310667722025074, 48.833056782877222 ], [ 2.307135337599138, 48.83017815621568 ], [ 2.306931640548025, 48.829822621434054 ], [ 2.304587550274392, 48.827858263166299 ], [ 2.301315418488453, 48.825125760833103 ], [ 2.296970964406, 48.826084222652732 ], [ 2.292292946367538, 48.827118799412766 ], [ 2.292191836480192, 48.827141584926821 ], [ 2.289407656009721, 48.82833384157577 ], [ 2.28468371260374, 48.830306799902004 ], [ 2.282670920956136, 48.831152751898394 ], [ 2.280391323890181, 48.831979077224943 ], [ 2.279110853401828, 48.832465124719363 ], [ 2.279051930653324, 48.832489952136996 ] ] ] } },
{ "type": "Feature", "properties": { "insee_com": "75116", "nom_arrondissement": "Paris 16e Arrondissement", "avg_circumference_cm": 94.305809175987221, "tree_count": 17524, "pct_young_trees": 0.19647340789774023 }, "geometry": { "type": "Polygon", "coordinates": [ [ [ 2.255072103122054, 48.834899937346108 ], [ 2.253546694861461, 48.836675692426276 ], [ 2.252304927925927, 48.838142015087712 ], [ 2.251930255061035, 48.838616341774838 ], [ 2.251709308946856, 48.838821816226002 ], [ 2.251308552889278, 48.842059754455789 ], [ 2.251216230486769, 48.842890197033249 ], [ 2.252477551164904, 48.845485576360986 ], [ 2.250515688787809, 48.845555144475561 ], [ 2.245514981559115, 48.846855679081571 ], [ 2.242362313011173, 48.847657779511643 ], [ 2.241956924168444, 48.847984380843975 ], [ 2.240499842470815, 48.84931609894749 ], [ 2.239770051491471, 48.849832198209576 ], [ 2.239179626559883, 48.850042494744159 ], [ 2.237778292862653, 48.850349253647721 ], [ 2.226594150345919, 48.852811899933727 ], [ 2.224219105880447, 48.853516917548411 ], [ 2.224407449942075, 48.856154179452894 ], [ 2.225670292256979, 48.859404562387908 ], [ 2.227181294011469, 48.862384917761567 ], [ 2.228248359287424, 48.865161826511972 ], [ 2.229615132438551, 48.866854226755528 ], [ 2.230658982743392, 48.868079566918482 ], [ 2.23173635974686, 48.869068581601802 ], [ 2.233702274504686, 48.869897796483308 ], [ 2.23557581105711, 48.870523134645708 ], [ 2.23922505676246, 48.871573443549828 ], [ 2.240945304504728, 48.872341617504404 ], [ 2.241856061513682, 48.872901388688213 ], [ 2.243010273208006, 48.873784659113376 ], [ 2.245703788405577, 48.876459232468001 ], [ 2.246397777702424, 48.876177611377628 ], [ 2.254817140668557, 48.87408088136047 ], [ 2.255410336689475, 48.874263542667862 ], [ 2.256057163140736, 48.875559924476931 ], [ 2.258467171114177, 48.880387263077431 ], [ 2.261542031184246, 48.880001565755244 ], [ 2.270750115672039, 48.878834007579485 ], [ 2.277487029813821, 48.877968320844197 ], [ 2.279469949480847, 48.878531568000348 ], [ 2.279949332567544, 48.878573123973439 ], [ 2.281133964683096, 48.878197124348347 ], [ 2.283618245332463, 48.87740620719218 ], [ 2.285462926939731, 48.8768182708694 ], [ 2.287203460504203, 48.876265659622128 ], [ 2.288939867143469, 48.875712998497747 ], [ 2.294248654029473, 48.874035665187087 ], [ 2.295032069299386, 48.873773176737288 ], [ 2.295542880656993, 48.873303129599883 ], [ 2.29620959727898, 48.872494045026592 ], [ 2.297501223263732, 48.870938572106695 ], [ 2.298906435388405, 48.868534765967759 ], [ 2.29983829121079, 48.865537298492541 ], [ 2.299841599006072, 48.86498691611407 ], [ 2.300297979606477, 48.865007572139895 ], [ 2.300991315923401, 48.864740919449012 ], [ 2.301395548741394, 48.864584094856504 ], [ 2.301635346720621, 48.8644910626629 ], [ 2.301662484441652, 48.864195334932994 ], [ 2.301737287583633, 48.863496076942155 ], [ 2.299222465550164, 48.863283520573155 ], [ 2.296870514172012, 48.86261949441181 ], [ 2.294864562062728, 48.861875619377464 ], [ 2.293689941916093, 48.861246340410425 ], [ 2.291838557830339, 48.859968209629415 ], [ 2.289695682973307, 48.858182880385861 ], [ 2.288513487011697, 48.857021083425956 ], [ 2.288074160462674, 48.85595722857159 ], [ 2.28007305872698, 48.850289250176992 ], [ 2.278021048066483, 48.84888826705852 ], [ 2.275463566410293, 48.84670443553734 ], [ 2.266032384682759, 48.836838399151155 ], [ 2.262791524526515, 48.833923373515397 ], [ 2.261492487377966, 48.834070052794871 ], [ 2.255144238417505, 48.834809549360955 ], [ 2.255072103122054, 48.834899937346108 ] ] ] } },
{ "type": "Feature", "properties": { "insee_com": "75117", "nom_arrondissement": "Paris 17e Arrondissement", "avg_circumference_cm": 80.777928394864844, "tree_count": 12541, "pct_young_trees": 0.33354596922095525 }, "geometry": { "type": "Polygon", "coordinates": [ [ [ 2.283618245332463, 48.87740620719218 ], [ 2.281133964683096, 48.878197124348347 ], [ 2.279949332567544, 48.878573123973439 ], [ 2.279959643017463, 48.878616354327534 ], [ 2.280668770180328, 48.881768303996623 ], [ 2.280897352279332, 48.882792223694899 ], [ 2.281108010153241, 48.883040806398611 ], [ 2.284538198303594, 48.885574096660555 ], [ 2.284459571754662, 48.885639278193224 ], [ 2.285641616380019, 48.886554663551692 ], [ 2.287114077093995, 48.8872784091866 ], [ 2.288688176989797, 48.888052203086119 ], [ 2.290529215249999, 48.888956161736253 ], [ 2.291147763745907, 48.889301570766669 ], [ 2.291779590675396, 48.889473484248533 ], [ 2.292747623772231, 48.889593420822898 ], [ 2.295013183223064, 48.889874781252956 ], [ 2.295579536585645, 48.890149711861902 ], [ 2.297326658916109, 48.891053909942926 ], [ 2.299608319530779, 48.89217255104883 ], [ 2.300588268146194, 48.892628841516768 ], [ 2.303774362351612, 48.894153778940826 ], [ 2.307687317214231, 48.896010186356641 ], [ 2.308675362659435, 48.896381019352134 ], [ 2.309534485272158, 48.896703436658377 ], [ 2.312451445254302, 48.897782317970297 ], [ 2.315106047800934, 48.898594326908459 ], [ 2.318520205834404, 48.899638128133319 ], [ 2.319887174744135, 48.900459782082038 ], [ 2.320434138736961, 48.900775849598595 ], [ 2.323269608756061, 48.900812588864397 ], [ 2.325836365736297, 48.900953868187216 ], [ 2.329737986512133, 48.901036020687222 ], [ 2.330147116964155, 48.901043705510389 ], [ 2.329466545990975, 48.899022727204219 ], [ 2.329014397884978, 48.897697296169348 ], [ 2.328992045900743, 48.897632419904227 ], [ 2.328293236097557, 48.895551970704219 ], [ 2.327449877193466, 48.893051616606407 ], [ 2.327445936834116, 48.89303990326642 ], [ 2.326876013741736, 48.891337876898177 ], [ 2.326633338808739, 48.890592770230157 ], [ 2.326283724581081, 48.889575464235627 ], [ 2.325595877207139, 48.887507635073717 ], [ 2.32638169139828, 48.885797937163254 ], [ 2.327423135703934, 48.883507800603795 ], [ 2.327164725373034, 48.883455086768883 ], [ 2.326846459419326, 48.883391243869397 ], [ 2.324273217775089, 48.882870424239783 ], [ 2.320493681357567, 48.882106183689643 ], [ 2.32044880312552, 48.882096935633143 ], [ 2.316479725210513, 48.881341383863152 ], [ 2.312550891398833, 48.880851234363746 ], [ 2.308778523051354, 48.88039243620689 ], [ 2.303141823521401, 48.87915015041041 ], [ 2.300837245802401, 48.878658265575801 ], [ 2.298154863077949, 48.878076885658906 ], [ 2.29790844777493, 48.877745383278764 ], [ 2.295032069299386, 48.873773176737288 ], [ 2.294248654029473, 48.874035665187087 ], [ 2.288939867143469, 48.875712998497747 ], [ 2.287203460504203, 48.876265659622128 ], [ 2.285462926939731, 48.8768182708694 ], [ 2.283618245332463, 48.87740620719218 ] ] ] } },
{ "type": "Feature", "properties": { "insee_com": "75118", "nom_arrondissement": "Paris 18e Arrondissement", "avg_circumference_cm": 82.711951773545337, "tree_count": 11446, "pct_young_trees": 0.28822295998602132 }, "geometry": { "type": "Polygon", "coordinates": [ [ [ 2.336109461079046, 48.882763071905075 ], [ 2.33274232791497, 48.883748906402325 ], [ 2.332303072703811, 48.883867867230059 ], [ 2.329637790197905, 48.884558948482976 ], [ 2.329540571639998, 48.8845898806861 ], [ 2.328121477639861, 48.883706876515788 ], [ 2.327423135703934, 48.883507800603795 ], [ 2.32638169139828, 48.885797937163254 ], [ 2.325595877207139, 48.887507635073717 ], [ 2.326283724581081, 48.889575464235627 ], [ 2.326633338808739, 48.890592770230157 ], [ 2.326876013741736, 48.891337876898177 ], [ 2.327445936834116, 48.89303990326642 ], [ 2.327449877193466, 48.893051616606407 ], [ 2.328293236097557, 48.895551970704219 ], [ 2.328992045900743, 48.897632419904227 ], [ 2.329014397884978, 48.897697296169348 ], [ 2.329466545990975, 48.899022727204219 ], [ 2.330147116964155, 48.901043705510389 ], [ 2.334742913679454, 48.901138568485052 ], [ 2.335171130235882, 48.901147241466028 ], [ 2.343755951427352, 48.901320491669509 ], [ 2.344128257927195, 48.901327926935991 ], [ 2.347714950134087, 48.901399674653774 ], [ 2.351983536160429, 48.901484898703877 ], [ 2.358702843883925, 48.901618190998576 ], [ 2.365619903608481, 48.901757549597015 ], [ 2.370301804653316, 48.901847906168115 ], [ 2.370170291188827, 48.901555837348496 ], [ 2.370334571644304, 48.900943369630028 ], [ 2.370252815133699, 48.900259461451398 ], [ 2.370316492053774, 48.898716572572646 ], [ 2.370420494086906, 48.896658585087174 ], [ 2.371175976445192, 48.895994361791182 ], [ 2.371344110693875, 48.895738039748267 ], [ 2.371791555807094, 48.895393251170972 ], [ 2.370457176828816, 48.89452739500733 ], [ 2.370035221900147, 48.894005369771655 ], [ 2.369541154621306, 48.892906499171048 ], [ 2.368127524696543, 48.889701061344496 ], [ 2.367560990457849, 48.888624278490404 ], [ 2.367059831028409, 48.887331999449096 ], [ 2.366703703181201, 48.886562992054131 ], [ 2.364713572113417, 48.884366186566311 ], [ 2.361500301513613, 48.884406650646788 ], [ 2.359340232450158, 48.884409501009962 ], [ 2.355830240363881, 48.884183822342983 ], [ 2.351242871583771, 48.883858677314016 ], [ 2.349464985893749, 48.883724922984428 ], [ 2.346909326916857, 48.883414230766142 ], [ 2.34195931462228, 48.882444628188217 ], [ 2.33980196854301, 48.882023555463356 ], [ 2.339550582183016, 48.882061739551503 ], [ 2.337800457656781, 48.882325469070736 ], [ 2.337773141701888, 48.882328915307575 ], [ 2.336109461079046, 48.882763071905075 ] ] ] } },
{ "type": "Feature", "properties": { "insee_com": "75119", "nom_arrondissement": "Paris 19e Arrondissement", "avg_circumference_cm": 92.644922837504865, "tree_count": 15422, "pct_young_trees": 0.15497341460251587 }, "geometry": { "type": "Polygon", "coordinates": [ [ [ 2.370575635491561, 48.877734014624131 ], [ 2.370290292159463, 48.877990622355782 ], [ 2.370287299693743, 48.878463655203717 ], [ 2.370220435118679, 48.881963497005643 ], [ 2.370168080363927, 48.882684483115689 ], [ 2.370083654434945, 48.882787461698427 ], [ 2.369301392563939, 48.883313047613335 ], [ 2.368718249261116, 48.883947597590129 ], [ 2.36827567111368, 48.884122430704736 ], [ 2.367546742687418, 48.884183333992574 ], [ 2.364713572113417, 48.884366186566311 ], [ 2.366703703181201, 48.886562992054131 ], [ 2.367059831028409, 48.887331999449096 ], [ 2.367560990457849, 48.888624278490404 ], [ 2.368127524696543, 48.889701061344496 ], [ 2.369541154621306, 48.892906499171048 ], [ 2.370035221900147, 48.894005369771655 ], [ 2.370457176828816, 48.89452739500733 ], [ 2.371791555807094, 48.895393251170972 ], [ 2.371344110693875, 48.895738039748267 ], [ 2.371175976445192, 48.895994361791182 ], [ 2.370420494086906, 48.896658585087174 ], [ 2.370316492053774, 48.898716572572646 ], [ 2.370252815133699, 48.900259461451398 ], [ 2.370334571644304, 48.900943369630028 ], [ 2.370170291188827, 48.901555837348496 ], [ 2.370301804653316, 48.901847906168115 ], [ 2.379775917060788, 48.902047526815622 ], [ 2.380350078692644, 48.902058592479264 ], [ 2.384530045616337, 48.902147593344829 ], [ 2.384871915446142, 48.902076505426628 ], [ 2.38933240090448, 48.901161349307074 ], [ 2.390837239618765, 48.900907312951013 ], [ 2.395518094601829, 48.898264568457591 ], [ 2.39598519344668, 48.897507005219026 ], [ 2.397667826349162, 48.894606196130361 ], [ 2.398236114786815, 48.892640448582668 ], [ 2.398772315958186, 48.890260847011788 ], [ 2.398941654577955, 48.889532348753995 ], [ 2.399135941386647, 48.888532380103804 ], [ 2.399251617609397, 48.885361950376819 ], [ 2.399893615779398, 48.884204142661083 ], [ 2.400106665255306, 48.883821198741252 ], [ 2.401507160545184, 48.882631206040813 ], [ 2.403654858139889, 48.881676946370305 ], [ 2.40457585141299, 48.881268739606831 ], [ 2.408440118802962, 48.880436233703598 ], [ 2.409359835767223, 48.880255513376156 ], [ 2.410820319151064, 48.878436175801731 ], [ 2.40793407929123, 48.877572070594084 ], [ 2.406582644292136, 48.877113915763175 ], [ 2.406011141106451, 48.877013054485438 ], [ 2.402562321487233, 48.875998534808261 ], [ 2.399208122171167, 48.875539276795593 ], [ 2.398965987022432, 48.875491296075147 ], [ 2.397921938826138, 48.875462666888751 ], [ 2.395367943655133, 48.8752546390823 ], [ 2.395223492956283, 48.875248513391803 ], [ 2.392192854440722, 48.875462493557478 ], [ 2.392068801131714, 48.875460964288344 ], [ 2.39045749316421, 48.875439280475419 ], [ 2.389645129763283, 48.875302939337189 ], [ 2.388496636417807, 48.874764672890088 ], [ 2.387452080744171, 48.874664902348734 ], [ 2.386813394433954, 48.874601377073432 ], [ 2.385691787589019, 48.874099194225472 ], [ 2.385385602057697, 48.873934843071225 ], [ 2.384835909396155, 48.873725172567923 ], [ 2.383085559974287, 48.873476042269921 ], [ 2.383028408513118, 48.873466754366937 ], [ 2.379834493735429, 48.872855789107071 ], [ 2.37884759199913, 48.872613247345747 ], [ 2.376904765014236, 48.872048259429583 ], [ 2.37509243793508, 48.87367740156003 ], [ 2.374534258323927, 48.874178113915761 ], [ 2.373300707155033, 48.875285038251583 ], [ 2.372341359986538, 48.876148768389179 ], [ 2.370575635491561, 48.877734014624131 ] ] ] } },
{ "type": "Feature", "properties": { "insee_com": "75120", "nom_arrondissement": "Paris 20e Arrondissement", "avg_circumference_cm": 92.400167234067965, "tree_count": 16743, "pct_young_trees": 0.2000238905811384 }, "geometry": { "type": "Polygon", "coordinates": [ [ [ 2.387377786989925, 48.862898482045523 ], [ 2.387201100440798, 48.863086439453454 ], [ 2.383913130241849, 48.865983426113921 ], [ 2.383583978668193, 48.866266822289155 ], [ 2.383069142721887, 48.867034904168769 ], [ 2.382366809467288, 48.867633839513957 ], [ 2.380575885891117, 48.868980787676229 ], [ 2.379195650384537, 48.870062735353955 ], [ 2.378290113390531, 48.870774807326946 ], [ 2.376904765014236, 48.872048259429583 ], [ 2.37884759199913, 48.872613247345747 ], [ 2.379834493735429, 48.872855789107071 ], [ 2.383028408513118, 48.873466754366937 ], [ 2.383085559974287, 48.873476042269921 ], [ 2.384835909396155, 48.873725172567923 ], [ 2.385385602057697, 48.873934843071225 ], [ 2.385691787589019, 48.874099194225472 ], [ 2.386813394433954, 48.874601377073432 ], [ 2.387452080744171, 48.874664902348734 ], [ 2.388496636417807, 48.874764672890088 ], [ 2.389645129763283, 48.875302939337189 ], [ 2.39045749316421, 48.875439280475419 ], [ 2.392068801131714, 48.875460964288344 ], [ 2.392192854440722, 48.875462493557478 ], [ 2.395223492956283, 48.875248513391803 ], [ 2.395367943655133, 48.8752546390823 ], [ 2.397921938826138, 48.875462666888751 ], [ 2.398965987022432, 48.875491296075147 ], [ 2.399208122171167, 48.875539276795593 ], [ 2.402562321487233, 48.875998534808261 ], [ 2.406011141106451, 48.877013054485438 ], [ 2.406582644292136, 48.877113915763175 ], [ 2.40793407929123, 48.877572070594084 ], [ 2.410820319151064, 48.878436175801731 ], [ 2.412208384325074, 48.876742368478865 ], [ 2.412453090020587, 48.876443193688495 ], [ 2.413431063629795, 48.87314025049789 ], [ 2.413649310091608, 48.872403867058033 ], [ 2.41393245838964, 48.869533680240004 ], [ 2.413977335687163, 48.865181109176135 ], [ 2.414117481122137, 48.863507225389988 ], [ 2.414370428780846, 48.860649457756914 ], [ 2.414701692063775, 48.858704000531041 ], [ 2.414777613619788, 48.858254699802664 ], [ 2.415286455935682, 48.855177828320024 ], [ 2.41543707679171, 48.85438623951103 ], [ 2.416341130298895, 48.849233783543355 ], [ 2.416349838517878, 48.848699611147431 ], [ 2.41598393039775, 48.846694967131526 ], [ 2.415971110769568, 48.846622956268604 ], [ 2.411068913600706, 48.847046803365934 ], [ 2.406296268896808, 48.847454904426925 ], [ 2.403457625643953, 48.847707892342555 ], [ 2.39912112864224, 48.848098095621303 ], [ 2.399247185197987, 48.84886587718335 ], [ 2.398755968948561, 48.850338348008691 ], [ 2.398394619444394, 48.851301535985101 ], [ 2.397079060811191, 48.852991089505693 ], [ 2.396012785487526, 48.854331138900839 ], [ 2.394345091773725, 48.856519817242365 ], [ 2.392167384833463, 48.857667134350933 ], [ 2.389819086218175, 48.858359371607058 ], [ 2.389546437996217, 48.858480292155605 ], [ 2.388879258024644, 48.859816912023255 ], [ 2.387377786989925, 48.862898482045523 ] ] ] } }
]
}
